{"type": "FeatureCollection", "features": [ {"type": "Feature", "properties": {"norad_id": 66419, "name": "HULIANWANG DIGUI 13H", "group": "last-30-days", "lat": -49.94557391370333, "lon": -166.30928843654712, "alt_km": 815.7424762677383, "timestamp": "2025-12-06T20:37:54.811941+00:00", "meta": {"OBJECT_NAME": "HULIANWANG DIGUI 13H", "OBJECT_ID": "2025-258H", "EPOCH": "2025-12-05T14:43:51.252960", "MEAN_MOTION": 14.23328519, "ECCENTRICITY": 0.00120585, "INCLINATION": 50.0017, "RA_OF_ASC_NODE": 291.9103, "ARG_OF_PERICENTER": 334.7106, "MEAN_ANOMALY": 25.3215, "EPHEMERIS_TYPE": 0, "CLASSIFICATION_TYPE": "U", "NORAD_CAT_ID": 66419, "ELEMENT_SET_NO": 999, "REV_AT_EPOCH": 364, "BSTAR": 0.00013377596, "MEAN_MOTION_DOT": 1.46e-06, "MEAN_MOTION_DDOT": 0}, "tle": {"line1": "1 66419U 25258H   25339.61378765  .00000146  00000+0  13378-3 0  9998", "line2": "2 66419  50.0017 291.9103 0012058 334.7106  25.3215 14.23328519  3645"}}, "geometry": {"type": "Point", "coordinates": [-166.30928843654712, -49.94557391370333]}}, {"type": "Feature", "properties": {"norad_id": 66420, "name": "HULIANWANG DIGUI 13J", "group": "last-30-days", "lat": -49.905257383558606, "lon": -158.64878371299378, "alt_km": 817.1913021211822, "timestamp": "2025-12-06T20:37:54.811953+00:00", "meta": {"OBJECT_NAME": "HULIANWANG DIGUI 13J", "OBJECT_ID": "2025-258J", "EPOCH": "2025-12-05T23:07:39.042912", "MEAN_MOTION": 14.22956918, "ECCENTRICITY": 0.00133221, "INCLINATION": 50.0158, "RA_OF_ASC_NODE": 290.4806, "ARG_OF_PERICENTER": 343.9613, "MEAN_ANOMALY": 16.0876, "EPHEMERIS_TYPE": 0, "CLASSIFICATION_TYPE": "U", "NORAD_CAT_ID": 66420, "ELEMENT_SET_NO": 999, "REV_AT_EPOCH": 368, "BSTAR": 0.00030678625, "MEAN_MOTION_DOT": 5.36e-06, "MEAN_MOTION_DDOT": 0}, "tle": {"line1": "1 66420U 25258J   25339.96364633  .00000536  00000+0  30679-3 0  9993", "line2": "2 66420  50.0158 290.4806 0013322 343.9613  16.0876 14.22956918  3680"}}, "geometry": {"type": "Point", "coordinates": [-158.64878371299378, -49.905257383558606]}}, {"type": "Feature", "properties": {"norad_id": 66421, "name": "CZ-12 R/B", "group": "last-30-days", "lat": 23.332370399325388, "lon": 82.22631567921924, "alt_km": 739.255531881251, "timestamp": "2025-12-06T20:37:54.811967+00:00", "meta": {"OBJECT_NAME": "CZ-12 R/B", "OBJECT_ID": "2025-258K", "EPOCH": "2025-12-06T14:57:02.602656", "MEAN_MOTION": 14.42319758, "ECCENTRICITY": 0.0064526, "INCLINATION": 49.9961, "RA_OF_ASC_NODE": 284.4905, "ARG_OF_PERICENTER": 227.4206, "MEAN_ANOMALY": 132.1259, "EPHEMERIS_TYPE": 0, "CLASSIFICATION_TYPE": "U", "NORAD_CAT_ID": 66421, "ELEMENT_SET_NO": 999, "REV_AT_EPOCH": 383, "BSTAR": 0.00011927224, "MEAN_MOTION_DOT": 2.36e-06, "MEAN_MOTION_DDOT": 0}, "tle": {"line1": "1 66421U 25258K   25340.62294679  .00000236  00000+0  11927-3 0  9993", "line2": "2 66421  49.9961 284.4905 0064526 227.4206 132.1259 14.42319758  3838"}}, "geometry": {"type": "Point", "coordinates": [82.22631567921924, 23.332370399325388]}}, {"type": "Feature", "properties": {"norad_id": 66422, "name": "STARLINK-35617", "group": "last-30-days", "lat": 32.03507726402845, "lon": 124.17297886038425, "alt_km": 439.32045153374474, "timestamp": "2025-12-06T20:37:54.811978+00:00", "meta": {"OBJECT_NAME": "STARLINK-35617", "OBJECT_ID": "2025-259A", "EPOCH": "2025-12-06T14:00:01.999872", "MEAN_MOTION": 15.40737163, "ECCENTRICITY": 0.00010662, "INCLINATION": 43.0006, "RA_OF_ASC_NODE": 83.5853, "ARG_OF_PERICENTER": 297.2915, "MEAN_ANOMALY": 19.4746, "EPHEMERIS_TYPE": 0, "CLASSIFICATION_TYPE": "U", "NORAD_CAT_ID": 66422, "ELEMENT_SET_NO": 999, "REV_AT_EPOCH": 529, "BSTAR": -0.0032340225, "MEAN_MOTION_DOT": -0.00133226, "MEAN_MOTION_DDOT": 0}, "tle": {"line1": "1 66422U 25259A   25340.58335648 -.00133226  00000+0 -32340-2 0  9991", "line2": "2 66422  43.0006  83.5853 0001066 297.2915  19.4746 15.40737163  5299"}}, "geometry": {"type": "Point", "coordinates": [124.17297886038425, 32.03507726402845]}}, {"type": "Feature", "properties": {"norad_id": 66423, "name": "STARLINK-35618", "group": "last-30-days", "lat": 37.60656264610829, "lon": 137.71347226737035, "alt_km": 438.84850486252435, "timestamp": "2025-12-06T20:37:54.811988+00:00", "meta": {"OBJECT_NAME": "STARLINK-35618", "OBJECT_ID": "2025-259B", "EPOCH": "2025-12-06T14:00:01.999872", "MEAN_MOTION": 15.40733112, "ECCENTRICITY": 0.00011875, "INCLINATION": 43.0005, "RA_OF_ASC_NODE": 83.5548, "ARG_OF_PERICENTER": 267.4855, "MEAN_ANOMALY": 61.7047, "EPHEMERIS_TYPE": 0, "CLASSIFICATION_TYPE": "U", "NORAD_CAT_ID": 66423, "ELEMENT_SET_NO": 999, "REV_AT_EPOCH": 529, "BSTAR": -0.0023969645, "MEAN_MOTION_DOT": -0.00099246, "MEAN_MOTION_DDOT": 0}, "tle": {"line1": "1 66423U 25259B   25340.58335648 -.00099246  00000+0 -23970-2 0  9994", "line2": "2 66423  43.0005  83.5548 0001187 267.4855  61.7047 15.40733112  5290"}}, "geometry": {"type": "Point", "coordinates": [137.71347226737035, 37.60656264610829]}}, {"type": "Feature", "properties": {"norad_id": 66424, "name": "STARLINK-35588", "group": "last-30-days", "lat": 41.40842800635321, "lon": 153.0802703821436, "alt_km": 438.34212302884316, "timestamp": "2025-12-06T20:37:54.811999+00:00", "meta": {"OBJECT_NAME": "STARLINK-35588", "OBJECT_ID": "2025-259C", "EPOCH": "2025-12-06T14:00:01.999872", "MEAN_MOTION": 15.40723929, "ECCENTRICITY": 0.0001214, "INCLINATION": 43.0006, "RA_OF_ASC_NODE": 83.5257, "ARG_OF_PERICENTER": 265.6863, "MEAN_ANOMALY": 75.9479, "EPHEMERIS_TYPE": 0, "CLASSIFICATION_TYPE": "U", "NORAD_CAT_ID": 66424, "ELEMENT_SET_NO": 999, "REV_AT_EPOCH": 529, "BSTAR": -0.0020542995, "MEAN_MOTION_DOT": -0.00085231, "MEAN_MOTION_DDOT": 0}, "tle": {"line1": "1 66424U 25259C   25340.58335648 -.00085231  00000+0 -20543-2 0  9997", "line2": "2 66424  43.0006  83.5257 0001214 265.6863  75.9479 15.40723929  5290"}}, "geometry": {"type": "Point", "coordinates": [153.0802703821436, 41.40842800635321]}}, {"type": "Feature", "properties": {"norad_id": 66425, "name": "STARLINK-35555", "group": "last-30-days", "lat": 42.959268958777386, "lon": 169.71691878510612, "alt_km": 438.34799603792635, "timestamp": "2025-12-06T20:37:54.812010+00:00", "meta": {"OBJECT_NAME": "STARLINK-35555", "OBJECT_ID": "2025-259D", "EPOCH": "2025-12-06T14:00:01.999872", "MEAN_MOTION": 15.40631909, "ECCENTRICITY": 0.0001632, "INCLINATION": 43.0003, "RA_OF_ASC_NODE": 83.4932, "ARG_OF_PERICENTER": 284.8298, "MEAN_ANOMALY": 69.2577, "EPHEMERIS_TYPE": 0, "CLASSIFICATION_TYPE": "U", "NORAD_CAT_ID": 66425, "ELEMENT_SET_NO": 999, "REV_AT_EPOCH": 529, "BSTAR": 0.0019729098, "MEAN_MOTION_DOT": 0.00082822, "MEAN_MOTION_DDOT": 0}, "tle": {"line1": "1 66425U 25259D   25340.58335648  .00082822  00000+0  19729-2 0  9993", "line2": "2 66425  43.0003  83.4932 0001632 284.8298  69.2577 15.40631909  5297"}}, "geometry": {"type": "Point", "coordinates": [169.71691878510612, 42.959268958777386]}}, {"type": "Feature", "properties": {"norad_id": 66426, "name": "STARLINK-35589", "group": "last-30-days", "lat": 42.03572717078913, "lon": -173.46879624651032, "alt_km": 438.3350795438291, "timestamp": "2025-12-06T20:37:54.812020+00:00", "meta": {"OBJECT_NAME": "STARLINK-35589", "OBJECT_ID": "2025-259E", "EPOCH": "2025-12-06T14:00:01.999872", "MEAN_MOTION": 15.4061884, "ECCENTRICITY": 0.00013117, "INCLINATION": 43.0005, "RA_OF_ASC_NODE": 83.4639, "ARG_OF_PERICENTER": 277.1515, "MEAN_ANOMALY": 89.3657, "EPHEMERIS_TYPE": 0, "CLASSIFICATION_TYPE": "U", "NORAD_CAT_ID": 66426, "ELEMENT_SET_NO": 999, "REV_AT_EPOCH": 529, "BSTAR": 0.0023913073, "MEAN_MOTION_DOT": 0.00100642, "MEAN_MOTION_DDOT": 0}, "tle": {"line1": "1 66426U 25259E   25340.58335648  .00100642  00000+0  23913-2 0  9995", "line2": "2 66426  43.0005  83.4639 0001311 277.1515  89.3657 15.40618840  5296"}}, "geometry": {"type": "Point", "coordinates": [-173.46879624651032, 42.03572717078913]}}, {"type": "Feature", "properties": {"norad_id": 66427, "name": "STARLINK-35611", "group": "last-30-days", "lat": 38.788792968857464, "lon": -157.7531878555506, "alt_km": 439.38811467161395, "timestamp": "2025-12-06T20:37:54.812031+00:00", "meta": {"OBJECT_NAME": "STARLINK-35611", "OBJECT_ID": "2025-259F", "EPOCH": "2025-12-06T14:00:01.999872", "MEAN_MOTION": 15.40581762, "ECCENTRICITY": 0.0002004, "INCLINATION": 43.0004, "RA_OF_ASC_NODE": 83.4332, "ARG_OF_PERICENTER": 306.0138, "MEAN_ANOMALY": 72.9203, "EPHEMERIS_TYPE": 0, "CLASSIFICATION_TYPE": "U", "NORAD_CAT_ID": 66427, "ELEMENT_SET_NO": 999, "REV_AT_EPOCH": 529, "BSTAR": 0.0022234866, "MEAN_MOTION_DOT": 0.00093355, "MEAN_MOTION_DDOT": 0}, "tle": {"line1": "1 66427U 25259F   25340.58335648  .00093355  00000+0  22235-2 0  9994", "line2": "2 66427  43.0004  83.4332 0002004 306.0138  72.9203 15.40581762  5296"}}, "geometry": {"type": "Point", "coordinates": [-157.7531878555506, 38.788792968857464]}}, {"type": "Feature", "properties": {"norad_id": 66428, "name": "STARLINK-35610", "group": "last-30-days", "lat": 33.573141390435396, "lon": -143.60816567215045, "alt_km": 439.5473377976241, "timestamp": "2025-12-06T20:37:54.812046+00:00", "meta": {"OBJECT_NAME": "STARLINK-35610", "OBJECT_ID": "2025-259G", "EPOCH": "2025-12-06T14:00:01.999872", "MEAN_MOTION": 15.41333146, "ECCENTRICITY": 0.00018948, "INCLINATION": 43.0005, "RA_OF_ASC_NODE": 83.4034, "ARG_OF_PERICENTER": 265.9792, "MEAN_ANOMALY": 125.0797, "EPHEMERIS_TYPE": 0, "CLASSIFICATION_TYPE": "U", "NORAD_CAT_ID": 66428, "ELEMENT_SET_NO": 999, "REV_AT_EPOCH": 529, "BSTAR": -0.024797874, "MEAN_MOTION_DOT": -0.00966725, "MEAN_MOTION_DDOT": 0}, "tle": {"line1": "1 66428U 25259G   25340.58335648 -.00966725  00000+0 -24798-1 0  9992", "line2": "2 66428  43.0005  83.4034 0001894 265.9792 125.0797 15.41333146  5292"}}, "geometry": {"type": "Point", "coordinates": [-143.60816567215045, 33.573141390435396]}}]}